{
  "type": "FeatureCollection",
  "features": [
    {
      "type": "Feature",
      "properties": {
        "norad_id": 66946,
        "name": "STARLINK-36115",
        "group": "last-30-days",
        "lat": 35.334142368892365,
        "lon": 44.00419863361297,
        "alt_km": 334.8159648802375,
        "timestamp": "2025-12-20T09:36:00.354836+00:00",
        "meta_object_name": "STARLINK-36115",
        "meta_object_id": "2025-286X",
        "meta_epoch": "2025-12-20T04:00:00.999072",
        "meta_mean_motion": 15.77471108,
        "meta_eccentricity": 0.0001184,
        "meta_inclination": 53.1554,
        "meta_ra_of_asc_node": 13.0538,
        "meta_arg_of_pericenter": 79.2525,
        "meta_mean_anomaly": 81.6475,
        "meta_ephemeris_type": 0,
        "meta_classification_type": "U",
        "meta_norad_cat_id": 66946,
        "meta_element_set_no": 999,
        "meta_rev_at_epoch": 318,
        "meta_bstar": -0.010391,
        "meta_mean_motion_dot": -0.01542117,
        "meta_mean_motion_ddot": 0,
        "tle_line1": "1 66946U 25286X   25354.16667823 -.01542117  00000+0 -10391-1 0  9999",
        "tle_line2": "2 66946  53.1554  13.0538 0001184  79.2525  81.6475 15.77471108  3184"
      },
      "geometry": {
        "type": "Point",
        "coordinates": [
          44.00419863361297,
          35.334142368892365
        ]
      }
    },
    {
      "type": "Feature",
      "properties": {
        "norad_id": 66947,
        "name": "STARLINK-36089",
        "group": "last-30-days",
        "lat": 38.08903748209184,
        "lon": 47.87832419759748,
        "alt_km": 334.69848836938127,
        "timestamp": "2025-12-20T09:36:00.354848+00:00",
        "meta_object_name": "STARLINK-36089",
        "meta_object_id": "2025-286Y",
        "meta_epoch": "2025-12-20T04:00:00.999072",
        "meta_mean_motion": 15.7737563,
        "meta_eccentricity": 0.0001221,
        "meta_inclination": 53.1553,
        "meta_ra_of_asc_node": 13.045,
        "meta_arg_of_pericenter": 89.3286,
        "meta_mean_anomaly": 75.8073,
        "meta_ephemeris_type": 0,
        "meta_classification_type": "U",
        "meta_norad_cat_id": 66947,
        "meta_element_set_no": 999,
        "meta_rev_at_epoch": 318,
        "meta_bstar": -0.010559,
        "meta_mean_motion_dot": -0.01557948,
        "meta_mean_motion_ddot": 0,
        "tle_line1": "1 66947U 25286Y   25354.16667823 -.01557948  00000+0 -10559-1 0  9994",
        "tle_line2": "2 66947  53.1553  13.0450 0001221  89.3286  75.8073 15.77375630  3187"
      },
      "geometry": {
        "type": "Point",
        "coordinates": [
          47.87832419759748,
          38.08903748209184
        ]
      }
    },
    {
      "type": "Feature",
      "properties": {
        "norad_id": 66948,
        "name": "STARLINK-36116",
        "group": "last-30-days",
        "lat": 36.78083914865353,
        "lon": 45.98172595614503,
        "alt_km": 334.9373869858928,
        "timestamp": "2025-12-20T09:36:00.354858+00:00",
        "meta_object_name": "STARLINK-36116",
        "meta_object_id": "2025-286Z",
        "meta_epoch": "2025-12-20T04:00:00.999072",
        "meta_mean_motion": 15.77400492,
        "meta_eccentricity": 0.0001111,
        "meta_inclination": 53.1554,
        "meta_ra_of_asc_node": 13.0493,
        "meta_arg_of_pericenter": 92.6689,
        "meta_mean_anomaly": 70.4513,
        "meta_ephemeris_type": 0,
        "meta_classification_type": "U",
        "meta_norad_cat_id": 66948,
        "meta_element_set_no": 999,
        "meta_rev_at_epoch": 318,
        "meta_bstar": -0.010543,
        "meta_mean_motion_dot": -0.01557341,
        "meta_mean_motion_ddot": 0,
        "tle_line1": "1 66948U 25286Z   25354.16667823 -.01557341  00000+0 -10543-1 0  9995",
        "tle_line2": "2 66948  53.1554  13.0493 0001111  92.6689  70.4513 15.77400492  3183"
      },
      "geometry": {
        "type": "Point",
        "coordinates": [
          45.98172595614503,
          36.78083914865353
        ]
      }
    },
    {
      "type": "Feature",
      "properties": {
        "norad_id": 66949,
        "name": "STARLINK-36096",
        "group": "last-30-days",
        "lat": 39.37591736613998,
        "lon": 49.85966937414854,
        "alt_km": 334.5919801714672,
        "timestamp": "2025-12-20T09:36:00.354870+00:00",
        "meta_object_name": "STARLINK-36096",
        "meta_object_id": "2025-286AA",
        "meta_epoch": "2025-12-20T04:00:00.999072",
        "meta_mean_motion": 15.77358097,
        "meta_eccentricity": 0.0001179,
        "meta_inclination": 53.1556,
        "meta_ra_of_asc_node": 13.0411,
        "meta_arg_of_pericenter": 90.9353,
        "meta_mean_anomaly": 76.2299,
        "meta_ephemeris_type": 0,
        "meta_classification_type": "U",
        "meta_norad_cat_id": 66949,
        "meta_element_set_no": 999,
        "meta_rev_at_epoch": 318,
        "meta_bstar": -0.0107,
        "meta_mean_motion_dot": -0.01574963,
        "meta_mean_motion_ddot": 0,
        "tle_line1": "1 66949U 25286AA  25354.16667823 -.01574963  00000+0 -10700-1 0  9990",
        "tle_line2": "2 66949  53.1556  13.0411 0001179  90.9353  76.2299 15.77358097  3187"
      },
      "geometry": {
        "type": "Point",
        "coordinates": [
          49.85966937414854,
          39.37591736613998
        ]
      }
    },
    {
      "type": "Feature",
      "properties": {
        "norad_id": 66950,
        "name": "STARLINK-36111",
        "group": "last-30-days",
        "lat": 41.86276119215153,
        "lon": 54.084741935073,
        "alt_km": 334.1878824161249,
        "timestamp": "2025-12-20T09:36:00.354880+00:00",
        "meta_object_name": "STARLINK-36111",
        "meta_object_id": "2025-286AB",
        "meta_epoch": "2025-12-20T04:00:00.999072",
        "meta_mean_motion": 15.77287109,
        "meta_eccentricity": 0.0001422,
        "meta_inclination": 53.1557,
        "meta_ra_of_asc_node": 13.032,
        "meta_arg_of_pericenter": 83.6383,
        "meta_mean_anomaly": 87.6449,
        "meta_ephemeris_type": 0,
        "meta_classification_type": "U",
        "meta_norad_cat_id": 66950,
        "meta_element_set_no": 999,
        "meta_rev_at_epoch": 318,
        "meta_bstar": -0.010795,
        "meta_mean_motion_dot": -0.01582948,
        "meta_mean_motion_ddot": 0,
        "tle_line1": "1 66950U 25286AB  25354.16667823 -.01582948  00000+0 -10795-1 0  9998",
        "tle_line2": "2 66950  53.1557  13.0320 0001422  83.6383  87.6449 15.77287109  3180"
      },
      "geometry": {
        "type": "Point",
        "coordinates": [
          54.084741935073,
          41.86276119215153
        ]
      }
    },
    {
      "type": "Feature",
      "properties": {
        "norad_id": 66951,
        "name": "STARLINK-35999",
        "group": "last-30-days",
        "lat": 43.062409960725184,
        "lon": 56.35400447064755,
        "alt_km": 334.255254973491,
        "timestamp": "2025-12-20T09:36:00.354891+00:00",
        "meta_object_name": "STARLINK-35999",
        "meta_object_id": "2025-286AC",
        "meta_epoch": "2025-12-20T04:00:00.999072",
        "meta_mean_motion": 15.77243088,
        "meta_eccentricity": 0.0001251,
        "meta_inclination": 53.1557,
        "meta_ra_of_asc_node": 13.0276,
        "meta_arg_of_pericenter": 87.6073,
        "meta_mean_anomaly": 85.773,
        "meta_ephemeris_type": 0,
        "meta_classification_type": "U",
        "meta_norad_cat_id": 66951,
        "meta_element_set_no": 999,
        "meta_rev_at_epoch": 318,
        "meta_bstar": -0.010867,
        "meta_mean_motion_dot": -0.01589224,
        "meta_mean_motion_ddot": 0,
        "tle_line1": "1 66951U 25286AC  25354.16667823 -.01589224  00000+0 -10867-1 0  9993",
        "tle_line2": "2 66951  53.1557  13.0276 0001251  87.6073  85.7730 15.77243088  3181"
      },
      "geometry": {
        "type": "Point",
        "coordinates": [
          56.35400447064755,
          43.062409960725184
        ]
      }
    },
    {
      "type": "Feature",
      "properties": {
        "norad_id": 66952,
        "name": "STARLINK-36122",
        "group": "last-30-days",
        "lat": 40.64460887513769,
        "lon": 51.94266490469917,
        "alt_km": 334.3650217826398,
        "timestamp": "2025-12-20T09:36:00.354901+00:00",
        "meta_object_name": "STARLINK-36122",
        "meta_object_id": "2025-286AD",
        "meta_epoch": "2025-12-20T04:00:00.999072",
        "meta_mean_motion": 15.77316264,
        "meta_eccentricity": 0.0001285,
        "meta_inclination": 53.1557,
        "meta_ra_of_asc_node": 13.0364,
        "meta_arg_of_pericenter": 81.9142,
        "meta_mean_anomaly": 87.3228,
        "meta_ephemeris_type": 0,
        "meta_classification_type": "U",
        "meta_norad_cat_id": 66952,
        "meta_element_set_no": 999,
        "meta_rev_at_epoch": 318,
        "meta_bstar": -0.010713,
        "meta_mean_motion_dot": -0.01574109,
        "meta_mean_motion_ddot": 0,
        "tle_line1": "1 66952U 25286AD  25354.16667823 -.01574109  00000+0 -10713-1 0  9990",
        "tle_line2": "2 66952  53.1557  13.0364 0001285  81.9142  87.3228 15.77316264  3188"
      },
      "geometry": {
        "type": "Point",
        "coordinates": [
          51.94266490469917,
          40.64460887513769
        ]
      }
    }
  ]
}